date:2024-08-30T03:18:20+00:00
validtle:1
satid:55647
launchyear:2023
epoch:24242.16885037
epochday:242
tleage:1
tleclassification:U
active:1
name:STARLINK-5510
meananomly:88.3792
meanmotion:14.9835
rightascension:0.0000
declination:0.0000
semimajoraxis:6950.122129228
altitudeatperigee:570
altitudeatapogee:574
inclination:70.0008
eccentricity:0.0002923
argumentofperigree:271.7033
nickname:STARLINK-5510
idesg:23021V  
cosparid:2023-021V
altkm:574.35211616226
velkms:7.5739627221507
velkmh:27266
onumepoch:8498
onumnow:127344.60
otype:1
otypedesc:Low Earth Orbit (LEO)
status:1
timestamp:2024-08-29T04:03:09+00:00
nowjuliandate:2460552.6377419
nowepochdate:24243.1377314815
TLE:
STARLINK-5510
1 55647U 23021V   24242.16885037  .00001626  00000+0  14396-3 0  9997
2 55647  70.0008 150.0251 0002923 271.7033  88.3792 14.98353553 84989